Community,SASAPRegions,NAMELSAD,region,Reg_corp,County,LAT,LONG,Urban
Adak,Alaska Peninsula and Aleutian Islands,Adak city,Aleutian Islands,Aleut,Aleutians West,51.8399043,-176.5655164,0
Adak Station,Alaska Peninsula and Aleutian Islands,,,,,,,0
Afognak,Kodiak,,,,,,,0
Akhiok,Kodiak,Akhiok city,Kodiak,Koniag,Kodiak Island,56.9483287,-154.215307,0
Akiachak,Kuskokwim,Akiachak CDP,Kuskokwim,Calista,Bethel,60.920848,-161.4019705,0
Akiak,Kuskokwim,Akiak city,Kuskokwim,Calista,Bethel,60.9094467,-161.2160016,0
Akolmiut,Kuskokwim,,,,,,,0
Akutan,Alaska Peninsula and Aleutian Islands,Akutan city,Aleutian Islands,Aleut,Aleutians East,54.1399932,-165.763018,0
Alakanuk,Yukon,Alakanuk city,Yukon,Calista,Kusilvak,62.7109971,-164.649719,0
Alatna,Yukon,Alatna CDP,Yukon,Doyon,Yukon-Koyukuk,66.5638439,-152.8391768,0
Alcan,Yukon,,,,,,,0
Alcan Border,Yukon,Alcan Border CDP,Yukon,Doyon,Southeast Fairbanks,62.6956058,-141.1827409,0
Aleknagik,Bristol Bay,Aleknagik city,Bristol Bay,Bristol Bay,Dillingham,59.2889609,-158.6643428,0
Aleknagik Lake,Bristol Bay,,,,,,,0
Aleknagik Mission,Bristol Bay,,,,,,,0
Aleneva,Kodiak,Aleneva CDP,Kodiak,Koniag,Kodiak Island,58.0590519,-152.909015,0
Alexander Creek,Cook Inlet,,,,,,,0
Alitak,Kodiak,,,,,,,0
Allakaket,Yukon,Allakaket city,Yukon,Doyon,Yukon-Koyukuk,66.5420021,-152.583016,0
Alpine,Arctic,,,,,,,0
Ambler,Kotzebue,Ambler city,Kotzebue,NANA,Northwest Arctic,67.0909458,-157.8870941,0
Amchitka,Alaska Peninsula and Aleutian Islands,,,,,,,0
Amook Pass,Kodiak,,,,,,,0
Anaktuvuk Pass,Arctic,Anaktuvuk Pass city,Arctic,Arctic Slope,North Slope,68.1538052,-151.704962,0
Anchor Point,Cook Inlet,Anchor Point CDP,Cook Inlet,Cook Inlet,Kenai Peninsula,59.7473639,-151.6956971,0
Anchorage,Cook Inlet,Anchorage municipality,Cook Inlet, ,Anchorage,61.1742503,-149.2843294,1
Anderson,Yukon,Anderson city,Yukon,Doyon,Denali,64.3082809,-149.1631867,0
Andreafsky,Yukon,,,,,,,0
Angoon,Southeast,Angoon city,Southeast,Sealaska,Hoonah-Angoon,57.4410211,-134.4786291,0
Aniak,Kuskokwim,Aniak city,Kuskokwim,Calista,Bethel,61.5776187,-159.5417555,0
Annette,Southeast,,,,,,,0
Anvik,Yukon,Anvik city,Yukon,Doyon,Yukon-Koyukuk,62.6325213,-160.2135554,0
Arctic,Yukon,,,,,,,0
Arctic Village,Yukon,Arctic Village CDP,Yukon,Doyon,Yukon-Koyukuk,68.1654197,-145.4013293,0
Arey Island,Arctic,,,,,,,0
Atka,Alaska Peninsula and Aleutian Islands,Atka city,Aleutian Islands,Aleut,Aleutians West,52.2114014,-174.2130282,0
Atkasook,Arctic,,,,,,,0
Atmautluak,Kuskokwim,Atmautluak CDP,Kuskokwim,Calista,Bethel,60.8627546,-162.2803021,0
Atqasuk,Arctic,Atqasuk city,Arctic,Arctic Slope,North Slope,70.4807859,-157.3254592,0
Attu,Alaska Peninsula and Aleutian Islands,,,,,,,0
Attu Station,Alaska Peninsula and Aleutian Islands,Attu Station CDP,Aleutian Islands,Aleut,Aleutians West,52.8802478,173.256076,0
Auke Bay,Southeast,,,,,,,1
Aurora,Yukon,,,,,,,0
Badger,Yukon,Badger CDP,Yukon,Doyon,Fairbanks North Star,64.8000813,-147.3851292,0
Baranof,Southeast,,,,,,,0
Barrow,Arctic,Barrow city,Arctic,Arctic Slope,North Slope,71.2516793,-156.8005236,1
Barter Island,Arctic,,,,,,,0
Bear Cove,Cook Inlet,,,,,,,0
Bear Creek,Cook Inlet,Bear Creek CDP,Cook Inlet,Chugach,Kenai Peninsula,60.2080603,-149.3697788,0
Beaver,Yukon,Beaver CDP,Yukon,Doyon,Yukon-Koyukuk,66.3828007,-147.3219377,0
Belkofski,Alaska Peninsula and Aleutian Islands,,,,,,,0
Bell Island,Southeast,,,,,,,0
Beluga,Cook Inlet,Beluga CDP,Cook Inlet,Cook Inlet,Kenai Peninsula,61.1909557,-151.1849687,0
Beluga River,Cook Inlet,,,,,,,0
Bethel,Kuskokwim,Bethel city,Kuskokwim,Calista,Bethel,60.7929985,-161.7934771,1
Bettles,Yukon,Bettles city,Yukon,Doyon,Yukon-Koyukuk,66.9125133,-151.5311718,0
Big Delta,Yukon,Big Delta CDP,Yukon,Doyon,Southeast Fairbanks,64.1566479,-145.7409222,0
Big Horn,Yukon,,,,,,,1
Big Lake,Cook Inlet,Big Lake CDP,Cook Inlet,Cook Inlet,Matanuska-Susitna,61.529768,-149.980916,0
Birch Creek,Yukon,Birch Creek CDP,Yukon,Doyon,Yukon-Koyukuk,66.2683311,-145.8763908,0
Birch Lake,Yukon,,,,,,,1
Birchwood,Cook Inlet,,,,,,,1
Bird Creek,Cook Inlet,,,,,,,1
Bird Settlement,Cook Inlet,,,,,,,0
Bodenburg Butte,Cook Inlet,,,,,,,0
Boswell Bay,Prince William Sound,,,,,,,0
Brevig Mission,Norton Sound,Brevig Mission city,Norton Sound,Bering Straits,Nome,65.343191,-166.5089548,0
Buckland,Kotzebue,Buckland city,Kotzebue,NANA,Northwest Arctic,65.9764942,-161.1388036,0
Buffalo Soapstone,Cook Inlet,Buffalo Soapstone CDP,Cook Inlet,Cook Inlet,Matanuska-Susitna,61.685152,-149.1202149,0
Butte,Cook Inlet,Butte CDP,Cook Inlet,Cook Inlet,Matanuska-Susitna,61.5337333,-148.9876948,0
Campbell,Southeast,,,,,,,0
Campion Station,Yukon,,,,,,,0
Candle,Kotzebue,,,,,,,0
Cantwell,Yukon,Cantwell CDP,Yukon,Ahtna,Denali,63.411396,-148.7496213,0
Cape Lisburne,Arctic,,,,,,,0
Cape Newenham,Bristol Bay,,,,,,,0
Cape Pole,Southeast,,,,,,,0
Carlanna,Southeast,,,,,,,0
Central,Yukon,Central CDP,Yukon,Doyon,Yukon-Koyukuk,65.4800896,-144.478091,0
Chalkyitsik,Yukon,Chalkyitsik CDP,Yukon,Doyon,Yukon-Koyukuk,66.6466658,-143.7864321,0
Chaneliak,Yukon,,,,,,,0
Chase,Cook Inlet,Chase CDP,Cook Inlet,Cook Inlet,Matanuska-Susitna,62.4182357,-149.9361716,0
Chatham,Southeast,,,,,,,0
Chefornak,Kuskokwim,Chefornak city,Kuskokwim,Calista,Bethel,60.1520037,-164.2530131,0
Chena Ridge,Yukon,Chena Ridge CDP,Yukon,Doyon,Fairbanks North Star,64.799021,-148.0237789,0
Chenega,Prince William Sound,Chenega CDP,Prince William Sound,Chugach,Valdez-Cordova,60.0919542,-147.9946972,0
Chenega Bay,Prince William Sound,,,,,60.0919542,-147.9946972,0
Chevak,Yukon,Chevak city,Yukon,Calista,Kusilvak,61.5295038,-165.5939836,0
Chickaloon,Cook Inlet,Chickaloon CDP,Cook Inlet,Cook Inlet,Matanuska-Susitna,61.8152611,-148.2919831,0
Chicken,Yukon,Chicken CDP,Yukon,Doyon,Southeast Fairbanks,64.0876576,-141.8281295,0
Chignik,Chignik,Chignik city,Chignik,Bristol Bay,Lake and Peninsula,56.2957212,-158.4029427,0
Chignik Bay,Chignik,,,,,,,0
Chignik Lagoon,Chignik,Chignik Lagoon CDP,Chignik,Bristol Bay,Lake and Peninsula,56.3042672,-158.5002595,0
Chignik Lake,Chignik,Chignik Lake CDP,Chignik,Bristol Bay,Lake and Peninsula,56.2719692,-158.7891075,0
Chiniak,Kodiak,Chiniak CDP,Kodiak,Koniag,Kodiak Island,57.5751962,-152.2828362,0
Chisana,Yukon,Chisana CDP,Yukon,Ahtna,Valdez-Cordova,62.1100391,-142.0505489,0
Chistochina,Copper River,Chistochina CDP,Copper River,Ahtna,Valdez-Cordova,62.5964435,-144.9410445,0
Chitina,Copper River,Chitina CDP,Copper River,Ahtna,Valdez-Cordova,61.551966,-144.175218,0
Chuathbaluk,Kuskokwim,Chuathbaluk city,Kuskokwim,Calista,Bethel,61.5755393,-159.2470699,0
Chugiak,Cook Inlet,,,,,,,1
Chuloonawik,Yukon,,,,,,,0
Circle,Yukon,Circle CDP,Yukon,Doyon,Yukon-Koyukuk,65.8385501,-144.1751424,0
Circle City,Yukon,,,,,,,0
Circle Hot Springs Station,Yukon,,,,,,,0
Clam Gulch,Cook Inlet,Clam Gulch CDP,Cook Inlet,Cook Inlet,Kenai Peninsula,60.2089022,-151.4042018,0
Clarks Point,Bristol Bay,Clark's Point city,Bristol Bay,Bristol Bay,Dillingham,58.8330404,-158.5273105,0
Clark's Point,Bristol Bay,Clark's Point city,Bristol Bay,Bristol Bay,Dillingham,58.8330404,-158.5273105,0
Clear,Yukon,,,,,,,0
Clover Pass,Southeast,,,,,,,1
Coffman Cove,Southeast,Coffman Cove city,Southeast,Sealaska,Prince of Wales-Hyder,56.0017512,-132.8419327,0
Cohoe,Cook Inlet,Cohoe CDP,Cook Inlet,Cook Inlet,Kenai Peninsula,60.2669714,-151.2981721,0
Cold Bay,Alaska Peninsula and Aleutian Islands,Cold Bay city,Aleutian Islands,Aleut,Aleutians East,55.215824,-162.7756858,0
Coldfoot,Yukon,Coldfoot CDP,Yukon,Doyon,Yukon-Koyukuk,67.2474514,-150.1080508,0
College,Yukon,College CDP,Yukon,Doyon,Fairbanks North Star,64.8700648,-147.8072215,1
Colville,Arctic,,,,,,,0
Cooper Landing,Cook Inlet,Cooper Landing CDP,Cook Inlet,Cook Inlet,Kenai Peninsula,60.4950707,-149.844285,0
Copper Center,Copper River,Copper Center CDP,Copper River,Ahtna,Valdez-Cordova,61.9845487,-145.3543425,0
Copperville,Copper River,,,,,,,0
Cordova,Prince William Sound,Cordova city,Copper River,Chugach,Valdez-Cordova,60.530138,-145.6420649,1
Corner Bay,Southeast,,,,,,,0
Council,Norton Sound,,,,,,,0
Covenant Life,Southeast,Covenant Life CDP,Southeast,Sealaska,Haines,59.397505,-136.123002,0
Craig,Southeast,Craig city,Southeast,Sealaska,Prince of Wales-Hyder,55.4887459,-133.111568,0
Crooked Creek,Kuskokwim,Crooked Creek CDP,Kuskokwim,Calista,Bethel,61.7968531,-158.0810662,0
Crown Point,Cook Inlet,Crown Point CDP,Cook Inlet,Cook Inlet,Kenai Peninsula,60.4266794,-149.3529803,0
Cube Cove,Southeast,,,,,,,0
Dairy,Southeast,,,,,,,1
Deadhorse,Arctic,,,,,,,0
Deep Bay,Southeast,,,,,,,0
Deering,Kotzebue,Deering city,Kotzebue,NANA,Northwest Arctic,66.0694862,-162.7645946,0
Delta Junction,Yukon,Delta Junction city,Yukon,Doyon,Southeast Fairbanks,64.0547602,-145.6857212,0
Deltana,Yukon,Deltana CDP,Yukon,Doyon,Southeast Fairbanks,63.7893855,-145.3516209,0
Denali Park,Yukon,Denali Park CDP,Yukon, ,Denali,63.5728671,-148.6734404,0
Diamond Ridge,Cook Inlet,Diamond Ridge CDP,Cook Inlet,Cook Inlet,Kenai Peninsula,59.7023536,-151.5545708,0
Dillingham,Bristol Bay,Dillingham city,Bristol Bay,Bristol Bay,Dillingham,59.0604718,-158.5322231,0
Diomede,Kotzebue,Diomede city,Kotzebue,Bering Straits,Nome,65.7539244,-168.922577,0
Dora Bay,Southeast,,,,,,,0
Dot Lake,Yukon,Dot Lake CDP,Yukon,Doyon,Southeast Fairbanks,63.5869145,-144.2930818,0
Dot Lake Village,Yukon,Dot Lake Village CDP,Yukon,Doyon,Southeast Fairbanks,63.6622624,-144.0160143,0
Douglas,Southeast,,,,,,,1
Dry Creek,Yukon,Dry Creek CDP,Yukon,Doyon,Southeast Fairbanks,63.6266379,-144.639194,0
Dunbar,Yukon,,,,,,,0
Dutch Harbor,Alaska Peninsula and Aleutian Islands,,,,,,,1
Eagle,Yukon,Eagle city,Yukon,Doyon,Southeast Fairbanks,64.7812638,-141.1977254,0
Eagle River,Cook Inlet,,,,,,,1
Eagle Village,Yukon,Eagle Village CDP,Yukon,Doyon,Southeast Fairbanks,64.7433893,-141.1138341,0
Easter,Yukon,,,,,,,0
Edna Bay,Southeast,Edna Bay city,Southeast,Sealaska,Prince of Wales-Hyder,55.9676177,-133.6922525,0
Eek,Kuskokwim,Eek city,Kuskokwim,Calista,Bethel,60.2162655,-162.0419994,0
Egegik,Bristol Bay,Egegik city,Bristol Bay,Bristol Bay,Lake and Peninsula,58.2051475,-157.5219777,0
Eielson Afb,Yukon,Eielson AFB CDP,Yukon,Doyon,Fairbanks North Star,64.6733002,-147.0594637,1
Eielson AFB,Yukon,Eielson AFB CDP,Yukon,Doyon,Fairbanks North Star,64.6733002,-147.0594637,1
Eklutna,Cook Inlet,,,,,,,1
Eklutna Housing Project,Cook Inlet,,,,,,,1
Ekuk,Bristol Bay,,,,,,,0
Ekwok,Bristol Bay,Ekwok city,Bristol Bay,Bristol Bay,Dillingham,59.3456639,-157.4880056,0
Elfin Cove,Southeast,Elfin Cove CDP,Southeast,Sealaska,Hoonah-Angoon,58.1911751,-136.3125245,0
Elim,Norton Sound,Elim city,Norton Sound,Bering Straits,Nome,64.6182258,-162.2765599,0
Ellamar,Prince William Sound,,,,,,,0
Elmendorf Afb,Cook Inlet,,,,,,,1
Emmonak,Yukon,Emmonak city,Yukon,Calista,Kusilvak,62.7755898,-164.5092895,0
English Bay,Cook Inlet,,,,,,,0
Eska,Cook Inlet,,,,,,,0
Ester,Yukon,Ester CDP,Yukon,Doyon,Fairbanks North Star,64.879056,-148.0411534,0
Eureka Roadhouse,Copper River,Eureka Roadhouse CDP,Copper River,Ahtna,Matanuska-Susitna,61.9585075,-147.1551042,0
Evans Island,Prince William Sound,,,,,,,0
Evansville,Yukon,Evansville CDP,Yukon,Doyon,Yukon-Koyukuk,66.9329734,-151.3689287,0
Excursion Inlet,Southeast,Excursion Inlet CDP,Southeast,Sealaska,Haines,58.4151348,-135.3455188,0
Eyak,Prince William Sound,,,,,,,0
Fairbanks,Yukon,Fairbanks city,Yukon,Doyon,Fairbanks North Star,64.8365307,-147.6517447,1
Falls Bay,Prince William Sound,,,,,,,0
False Pass,Alaska Peninsula and Aleutian Islands,False Pass city,Aleutian Islands,Aleut,Aleutians East,54.8724411,-163.3342679,0
Farewell,Yukon,,,,,,,0
Farm Loop,Cook Inlet,Farm Loop CDP,Cook Inlet,Cook Inlet,Matanuska-Susitna,61.6384559,-149.1340427,0
Farmers Loop,Yukon,Farmers Loop CDP,Yukon,Doyon,Fairbanks North Star,64.908224,-147.6986608,0
Ferry,Yukon,Ferry CDP,Yukon,Doyon,Denali,64.0496203,-148.9206018,0
Fire Island,Cook Inlet,,,,,,,1
Fire Lake,Cook Inlet,,,,,,,1
Fishhook,Cook Inlet,Fishhook CDP,Cook Inlet,Cook Inlet,Matanuska-Susitna,61.7312301,-149.283619,0
Flat,Yukon,Flat CDP,Yukon,Doyon,Yukon-Koyukuk,62.4413674,-158.0405325,0
Fort Greely,Yukon,Fort Greely CDP,Yukon,Doyon,Southeast Fairbanks,63.8995983,-145.5952515,0
Fort Richardson,Cook Inlet,,,,,,,1
Fort Wainwright,Yukon,,,,,,,1
Fort Yukon,Yukon,Fort Yukon city,Yukon,Doyon,Yukon-Koyukuk,66.5884097,-145.227636,0
Fortuna Ledge,Yukon,,,,,,,0
Four Mile Road,Yukon,Four Mile Road CDP,Yukon,Doyon,Yukon-Koyukuk,64.6042335,-149.1152638,0
Fox,Yukon,Fox CDP,Yukon,Doyon,Fairbanks North Star,64.974859,-147.6090061,0
Fox River,Cook Inlet,Fox River CDP,Cook Inlet,Cook Inlet,Kenai Peninsula,59.8945046,-151.0070443,0
Freshwater Bay,Southeast,,,,,,,0
Fritz Creek,Cook Inlet,Fritz Creek CDP,Cook Inlet,Cook Inlet,Kenai Peninsula,59.7468664,-151.2886074,0
Funny River,Cook Inlet,Funny River CDP,Cook Inlet,Cook Inlet,Kenai Peninsula,60.4844371,-150.7896585,0
Funter Bay,Southeast,,,,,,,0
Gakona,Copper River,Gakona CDP,Copper River,Ahtna,Valdez-Cordova,62.3607816,-145.2656691,0
Galena,Yukon,Galena city,Yukon,Doyon,Yukon-Koyukuk,64.7414053,-156.8734198,0
Gambell,Norton Sound,Gambell city,Norton Sound,Bering Straits,Nome,63.7665946,-171.7329698,0
Game Creek,Southeast,Game Creek CDP,Southeast,Sealaska,Hoonah-Angoon,58.0501048,-135.5125475,0
Gateway,Cook Inlet,Gateway CDP,Cook Inlet,Cook Inlet,Matanuska-Susitna,61.5665726,-149.2230378,0
Girdwood,Cook Inlet,,,,,,,1
Glacier View,Cook Inlet,Glacier View CDP,Cook Inlet, ,Matanuska-Susitna,61.8479883,-147.7725933,0
Glennallen,Copper River,Glennallen CDP,Copper River,Ahtna,Valdez-Cordova,62.1473147,-145.8361703,0
Goldstream,Yukon,Goldstream CDP,Yukon,Doyon,Fairbanks North Star,64.951999,-147.9706022,0
Golovin,Norton Sound,Golovin city,Norton Sound,Bering Straits,Nome,64.5639018,-162.9989429,0
Goodnews Bay,Kuskokwim,Goodnews Bay city,Kuskokwim,Calista,Bethel,59.1271649,-161.575325,0
Goose Bay,Cook Inlet,,,,,,,0
Graekl-Hamilton Acres,Yukon,,,,,,,0
Grayling,Yukon,Grayling city,Yukon,Doyon,Yukon-Koyukuk,62.8960454,-160.11302,0
Gulkana,Copper River,Gulkana CDP,Copper River,Ahtna,Valdez-Cordova,62.2151827,-145.4448865,0
Gulkana Airport,Copper River,,,,,,,0
Gulkana Reservation,Copper River,,,,,,,0
Gustavus,Southeast,Gustavus city,Southeast,Sealaska,Hoonah-Angoon,58.4344663,-135.7282416,0
Haines,Southeast,Haines CDP,Southeast,Sealaska,Haines,59.2604324,-135.4721657,0
Halibut Cove,Cook Inlet,Halibut Cove CDP,Cook Inlet,Cook Inlet,Kenai Peninsula,59.5695806,-151.2237642,0
Hamilton,Yukon,,,,,,,0
Happy Harbor,Southeast,,,,,,,0
Happy Valley,Cook Inlet,Happy Valley CDP,Cook Inlet,Cook Inlet,Kenai Peninsula,59.9104435,-151.6081787,0
Harding Lake,Yukon,,,,,,,1
Harding-Birch Lakes,Yukon,Harding-Birch Lakes CDP,Yukon,Doyon,Fairbanks North Star,64.3813051,-146.5306007,0
Hawk Inlet,Southeast,,,,,,,0
Haycock,Norton Sound,,,,,,,0
Healy,Yukon,Healy CDP,Yukon,Doyon,Denali,63.9596321,-148.9708423,0
Healy Lake,Yukon,Healy Lake CDP,Yukon,Doyon,Southeast Fairbanks,64.010439,-144.6786618,0
Herring Cove,Yukon,,,,,,,1
Hobart Bay,Southeast,Hobart Bay CDP,Southeast,Sealaska,Petersburg,57.4177587,-133.3065713,0
Holikachuk,Yukon,,,,,,,0
Hollis,Southeast,Hollis CDP,Southeast,Sealaska,Prince of Wales-Hyder,55.5154743,-132.7019221,0
Holy Cross,Yukon,Holy Cross city,Yukon,Doyon,Yukon-Koyukuk,62.1870739,-159.8519714,0
Homer,Cook Inlet,Homer city,Cook Inlet,Cook Inlet,Kenai Peninsula,59.6474446,-151.5131193,0
Hoonah,Southeast,Hoonah city,Southeast,Sealaska,Hoonah-Angoon,58.1222368,-135.4318869,0
Hooper Bay,Yukon,Hooper Bay city,Yukon,Calista,Kusilvak,61.5091624,-166.1113482,0
Hope,Cook Inlet,Hope CDP,Cook Inlet,Cook Inlet,Kenai Peninsula,60.8861245,-149.6329912,0
Houston,Cook Inlet,Houston city,Cook Inlet,Cook Inlet,Matanuska-Susitna,61.6153018,-149.8002477,0
Hughes,Yukon,Hughes city,Yukon,Doyon,Yukon-Koyukuk,66.0452165,-154.2376273,0
Huslia,Yukon,Huslia city,Yukon,Doyon,Yukon-Koyukuk,65.7056802,-156.3063387,0
Hydaburg,Southeast,Hydaburg city,Southeast,Sealaska,Prince of Wales-Hyder,55.2058418,-132.8204379,0
Hyder,Southeast,Hyder CDP,Southeast,Sealaska,Prince of Wales-Hyder,55.9815417,-130.0382879,0
Icy Bay,Southeast,,,,,,,0
Idaho Inlet,Southeast,,,,,,,0
Igiugig,Bristol Bay,Igiugig CDP,Bristol Bay,Bristol Bay,Lake and Peninsula,59.3012536,-155.86095,0
Iliamna,Bristol Bay,Iliamna CDP,Bristol Bay,Bristol Bay,Lake and Peninsula,59.8128056,-154.8422622,0
Indian,Cook Inlet,,,,,,,1
Indian Mountain,Yukon,,,,,,,0
Ivanof Bay,Chignik,Ivanof Bay CDP,Chignik,Bristol Bay,Lake and Peninsula,55.9181993,-159.4932984,0
Jakolof Bay,Cook Inlet,,,,,,,0
Juneau,Southeast,Juneau city and borough,Southeast,Sealaska,Juneau,58.6435233,-134.2811673,1
Kachemak,Cook Inlet,Kachemak city,Cook Inlet,Cook Inlet,Kenai Peninsula,59.674439,-151.4364706,0
Kaguyak,Kodiak,,,,,,,0
Kake,Southeast,Kake city,Southeast,Sealaska,Prince of Wales-Hyder,56.9753204,-133.9036632,0
Kakhonak,Bristol Bay,,,,,,,0
Kaktovik,Arctic,Kaktovik city,Arctic,Arctic Slope,North Slope,70.1214522,-143.629435,0
Kalifonsky,Cook Inlet,Kalifornsky CDP,Cook Inlet,Cook Inlet,Kenai Peninsula,60.4533983,-151.2203038,0
Kalifornsky,Cook Inlet,,,,,60.4533983,-151.2203038,0
Kalskag,Kuskokwim,,,,,64.3138233,-158.7797265,0
Kaltag,Yukon,Kaltag city,Yukon,Doyon,Yukon-Koyukuk,,,0
Karluk,Kodiak,Karluk CDP,Kodiak,Koniag,Kodiak Island,57.5908739,-154.3639103,0
Kasaan,Southeast,Kasaan city,Southeast,Sealaska,Prince of Wales-Hyder,55.5611447,-132.4068335,0
Kasiglook,Kuskokwim,Kasigluk CDP,Kuskokwim,Calista,Bethel,60.8640947,-162.5385788,0
Kasigluk,Kuskokwim,Kasigluk CDP,Kuskokwim,Calista,Bethel,60.8640947,-162.5385788,0
Kasilof,Cook Inlet,Kasilof CDP,Cook Inlet,Cook Inlet,Kenai Peninsula,60.3193358,-151.2328747,0
Kasitsna Bay,Cook Inlet,,,,,,,0
Katlian,Southeast,,,,,,,1
Kenai,Cook Inlet,Kenai city,Cook Inlet,Cook Inlet,Kenai Peninsula,60.5622743,-151.2079714,1
Kenny Lake,Copper River,Kenny Lake CDP,Copper River,Ahtna,Valdez-Cordova,61.6271712,-144.8629762,0
Kern,Cook Inlet,,,,,,,1
Ketchikan,Southeast,Ketchikan city,Southeast,Sealaska,Ketchikan Gateway,55.3571361,-131.6745638,1
Ketchikan East,Southeast,,,,,,,1
Kiana,Kotzebue,Kiana city,Kotzebue,NANA,Northwest Arctic,66.9725983,-160.4343271,0
King Cove,Alaska Peninsula and Aleutian Islands,King Cove city,Aleutian Islands,Aleut,Aleutians East,55.0774004,-162.3204026,0
King Island,Norton Sound,,,,,,,0
King Salmon,Bristol Bay,King Salmon CDP,Bristol Bay,Bristol Bay,Bristol Bay,58.7352301,-156.5285319,0
Kipnuk,Kuskokwim,Kipnuk CDP,Kuskokwim,Calista,Bethel,59.9364517,-164.0617513,0
Kivalina,Kotzebue,Kivalina city,Kotzebue,NANA,Northwest Arctic,67.7270541,-164.5355907,0
Klawock,Southeast,Klawock city,Southeast,Sealaska,Prince of Wales-Hyder,55.5564133,-133.0862916,0
Klukwan,Southeast,Klukwan CDP,Southeast,Sealaska,Hoonah-Angoon,59.3997662,-135.8868771,0
Knight Island,Prince William Sound,,,,,,,0
Knik,Cook Inlet,,,,,,,0
Knik River,Cook Inlet,Knik River CDP,Cook Inlet,Cook Inlet,Matanuska-Susitna,61.461826,-149.0075317,0
Knik-Fairview,Cook Inlet,Knik-Fairview CDP,Cook Inlet,Cook Inlet,Matanuska-Susitna,61.4971601,-149.6545047,0
Kobuk,Kotzebue,Kobuk city,Kotzebue,NANA,Northwest Arctic,66.9234177,-156.9040756,0
Kodiak,Kodiak,Kodiak city,Kodiak,Koniag,Kodiak Island,57.7911891,-152.4200872,1
Kodiak Station,Kodiak,Kodiak Station CDP,Kodiak,Koniag,Kodiak Island,57.7679505,-152.5959068,1
Kokhanok,Bristol Bay,Kokhanok CDP,Bristol Bay,Bristol Bay,Lake and Peninsula,59.4128736,-154.7466612,0
Koliganek,Bristol Bay,Koliganek CDP,Bristol Bay,Bristol Bay,Dillingham,59.6966837,-157.2248242,0
Kongiganak,Kuskokwim,Kongiganak CDP,Kuskokwim,Calista,Bethel,59.9644575,-162.8831033,0
Kotlik,Yukon,Kotlik city,Yukon,Calista,Kusilvak,63.029205,-163.5362588,0
Kotzebue,Kotzebue,Kotzebue city,Kotzebue,NANA,Northwest Arctic,66.8764343,-162.5115904,1
Koyuk,Norton Sound,Koyuk city,Norton Sound,Bering Straits,Nome,64.9410837,-161.1454584,0
Koyukuk,Yukon,Koyukuk city,Yukon,Doyon,Yukon-Koyukuk,64.9012535,-157.6940928,0
Kupreanof,Southeast,Kupreanof city,Southeast,Sealaska,Petersburg,56.8212946,-132.9721517,0
Kwethluk,Kuskokwim,Kwethluk city,Kuskokwim,Calista,Bethel,60.7934573,-161.4311239,0
Kwigillingok,Kuskokwim,Kwigillingok CDP,Kuskokwim,Calista,Bethel,59.8742339,-163.2055411,0
Kwiguk,Yukon,,,,,,,0
Kwinhagak,Kuskokwim,,,,,,,0
Labouchere Bay,Southeast,,,,,,,0
Lake Louise,Cook Inlet,Lake Louise CDP,Cook Inlet,Ahtna,Matanuska-Susitna,62.2969452,-146.5318448,0
Lake Minchumina,Yukon,Lake Minchumina CDP,Yukon,Doyon,Yukon-Koyukuk,63.7901432,-152.4621279,0
Lakes,Cook Inlet,Lakes CDP,Cook Inlet,Cook Inlet,Matanuska-Susitna,61.6052185,-149.3114683,1
Larsen Bay,Kodiak,Larsen Bay city,Kodiak,Koniag,Kodiak Island,57.5508943,-154.0052774,0
Lazy Mountain,Cook Inlet,Lazy Mountain CDP,Cook Inlet,Cook Inlet,Matanuska-Susitna,61.6575359,-148.9285017,0
Lemeta-Johnston,Yukon,,,,,,,0
Levelock,Bristol Bay,Levelock CDP,Bristol Bay,Bristol Bay,Lake and Peninsula,59.0682459,-156.9010206,0
Lignite,Yukon,,,,,,,0
Lime Village,Kuskokwim,Lime Village CDP,Kuskokwim,Calista,Bethel,61.3304812,-155.238328,0
Little Port Walter,Southeast,,,,,,,0
Livengood,Yukon,Livengood CDP,Yukon,Doyon,Yukon-Koyukuk,65.4765064,-148.4227842,0
Long Island,Southeast,,,,,,,0
Long Lake,Copper River,,,,,,,0
Loring,Southeast,Loring CDP,Southeast,Sealaska,Ketchikan Gateway,55.6066758,-131.6399759,0
Lowell Point,Cook Inlet,Lowell Point CDP,Cook Inlet,Chugach,Kenai Peninsula,60.0760625,-149.493807,0
Lower Kalskag,Kuskokwim,Lower Kalskag city,Kuskokwim,Calista,Bethel,61.5162855,-160.3555982,0
Lower Tonsina,Copper River,,,,,,,0
Lutak,Southeast,Lutak CDP,Southeast,Sealaska,Haines,59.4122121,-135.5890458,0
Manley Hot Springs,Yukon,Manley Hot Springs CDP,Yukon,Doyon,Yukon-Koyukuk,65.0187573,-150.6452806,0
Manokotak,Bristol Bay,Manokotak city,Bristol Bay,Bristol Bay,Dillingham,59.0050345,-159.0000909,0
Marshall,Yukon,Marshall city,Yukon,Calista,Kusilvak,61.8792557,-162.0612638,0
Mccarthy,Copper River,McCarthy CDP,Copper River,Ahtna,Valdez-Cordova,61.453957,-142.864693,0
McCarthy,Copper River,McCarthy CDP,Copper River,Ahtna,Valdez-Cordova,61.453957,-142.864693,0
Mcgrath,Kuskokwim,McGrath city,Kuskokwim,Doyon,Yukon-Koyukuk,62.9380625,-155.5485209,0
McGrath,Kuskokwim,McGrath city,Kuskokwim,Doyon,Yukon-Koyukuk,62.9380625,-155.5485209,0
McKenzie Point,Cook Inlet,,,,,,,0
Mckinley Park,Yukon,,,,,,,0
McKinley Park,Yukon,,,,,,,0
Meade River,Arctic,,,,,,,0
Meadow Lakes,Cook Inlet,Meadow Lakes CDP,Cook Inlet,Cook Inlet,Matanuska-Susitna,61.6241181,-149.5622901,0
Meakerville,Prince William Sound ,,,,,,,0
Mekoryuk,Kuskokwim,Mekoryuk city,Kuskokwim,Calista,Bethel,60.3707153,-166.2666371,0
Mendeltna,Copper River,Mendeltna CDP,Copper River,Ahtna,Valdez-Cordova,62.1459878,-146.7584531,0
Mentasta,Yukon,,,,,,,0
Mentasta Lake,Yukon,Mentasta Lake CDP,Yukon,Ahtna,Valdez-Cordova,63.0151639,-143.5397358,0
Mertarvik,Kuskokwim,Mertarvik CDP,Kuskokwim,Calista,Bethel,60.8109933,-164.49911,0
Metlakatla,Southeast,Metlakatla CDP,Southeast, ,Prince of Wales-Hyder,55.1146989,-131.5557262,0
Meyers Chuck,Southeast,,,,,,,0
Miller Landing,Cook Inlet,,,,,,,0
Minto,Yukon,Minto CDP,Yukon,Doyon,Yukon-Koyukuk,65.0896353,-149.5902102,0
Montana,Cook Inlet,,,,,,,0
Moose Creek,Yukon,Moose Creek CDP,Yukon,Doyon,Fairbanks North Star,64.7163687,-147.1666273,1
Moose Pass,Cook Inlet,Moose Pass CDP,Cook Inlet,Cook Inlet,Kenai Peninsula,60.5059364,-149.4683612,0
Moser Bay,Cook Inlet,,,,,,,0
Mosquito Lake,Southeast,Mosquito Lake CDP,Southeast,Sealaska,Haines,59.4751,-136.1991008,0
Mount Edgecumbe,Southeast,,,,,,,1
Mountain,Yukon,,,,,,,0
Mountain Point,Southeast,,,,,,,1
Mountain Village,Yukon,Mountain Village city,Yukon,Calista,Kusilvak,62.0920049,-163.6950331,0
Mud Bay,Southeast,Mud Bay CDP,Southeast,Sealaska,Haines,59.151183,-135.3564928,1
Mumtrak (Goodnews Bay),Kuskokwim,,,,,,,0
Murphy Dome,Yukon,,,,,,,0
Myers Chuck,Southeast,,,,,,,0
Nabesna,Yukon,Nabesna CDP,Yukon,Ahtna,Valdez-Cordova,62.4963946,-143.0080021,0
Naknek,Bristol Bay,Naknek CDP,Bristol Bay,Bristol Bay,Bristol Bay,58.7875852,-156.8925043,0
Nanwalek,Cook Inlet,Nanwalek CDP,Cook Inlet,Chugach,Kenai Peninsula,59.3265225,-151.9239022,0
Napakiak,Kuskokwim,Napakiak city,Kuskokwim,Calista,Bethel,60.6884337,-161.9804669,0
Napaskiak,Kuskokwim,Napaskiak city,Kuskokwim,Calista,Bethel,60.7040785,-161.752634,0
Naukati Bay,Southeast,Naukati Bay CDP,Southeast,Sealaska,Prince of Wales-Hyder,55.8769848,-133.18699,0
Nelchina,Copper River,Nelchina CDP,Copper River,Ahtna,Valdez-Cordova,62.0098518,-146.8300321,0
Nelson Island,Kuskokwim,,,,,,,0
Nelson Lagoon,Alaska Peninsula and Aleutian Islands,Nelson Lagoon CDP,Aleutian Islands,Aleut,Aleutians East,55.8366486,-161.6357986,0
Nenana,Yukon,Nenana city,Yukon,Doyon,Yukon-Koyukuk,64.5360539,-149.0836286,0
Nenana (Native Village),Yukon,,,,,,,0
New Allakaket,Yukon,,,,,,,0
New Stuyahok,Bristol Bay,New Stuyahok city,Bristol Bay,Bristol Bay,Dillingham,59.4852548,-157.3093541,0
Newhalen,Bristol Bay,Newhalen city,Bristol Bay,Bristol Bay,Lake and Peninsula,59.7364292,-154.9009546,0
Newtok,Kuskokwim,Newtok CDP,Kuskokwim,Calista,Bethel,60.9350524,-164.6459006,0
Nightmute,Kuskokwim,Nightmute city,Kuskokwim,Calista,Bethel,60.4624011,-164.8346396,0
Nikishka,Cook Inlet,,,,,,,0
Nikiski,Cook Inlet,Nikiski CDP,Cook Inlet,Cook Inlet,Kenai Peninsula,60.7250145,-151.2252558,0
Nikolaevsk,Cook Inlet,Nikolaevsk CDP,Cook Inlet,Cook Inlet,Kenai Peninsula,59.8295526,-151.5963815,0
Nikolai,Kuskokwim,Nikolai city,Kuskokwim,Doyon,Yukon-Koyukuk,62.9991147,-154.3749442,0
Nikolski,Alaska Peninsula and Aleutian Islands,Nikolski CDP,Aleutian Islands,Aleut,Aleutians West,53.007863,-168.7185016,0
Ninilchik,Cook Inlet,Ninilchik CDP,Cook Inlet,Cook Inlet,Kenai Peninsula,60.0617088,-151.4064623,0
Noatak,Kotzebue,Noatak CDP,Kotzebue,NANA,Northwest Arctic,67.5894823,-163.0104336,0
Nome,Norton Sound,Nome city,Norton Sound,Bering Straits,Nome,64.5057356,-165.4153072,1
Nondalton,Bristol Bay,Nondalton city,Bristol Bay,Bristol Bay,Lake and Peninsula,59.9739071,-154.8657141,0
Noorvik,Kotzebue,Noorvik city,Kotzebue,NANA,Northwest Arctic,66.8282099,-161.0346695,0
North Pole,Yukon,North Pole city,Yukon,Doyon,Fairbanks North Star,64.7527282,-147.3626554,1
North Tongass Highway,Southeast,,,,,,,1
North Whale Pass,Southeast,,,,,,,0
Northway,Yukon,Northway CDP,Yukon,Doyon,Southeast Fairbanks,62.9598341,-141.8373954,0
Northway Junction,Yukon,Northway Junction CDP,Yukon,Doyon,Southeast Fairbanks,63.0241269,-141.7912652,0
Northway Village,Yukon,Northway Village CDP,Yukon,Doyon,Southeast Fairbanks,62.9822584,-141.9280559,0
Noyes Island,Southeast,,,,,,,0
Nuiqsut,Arctic,Nuiqsut city,Arctic,Arctic Slope,North Slope,70.2134825,-150.9896735,0
Nulato,Yukon,Nulato city,Yukon,Doyon,Yukon-Koyukuk,64.6910782,-158.2757563,0
Nunaka Valley,Cook Inlet,,,,,,,0
Nunam Iqua,Yukon,Nunam Iqua city,Yukon,Calista,Kusilvak,62.5068978,-164.900548,0
Nunapitchuk,Kuskokwim,Nunapitchuk city,Kuskokwim,Calista,Bethel,60.8821142,-162.4643224,0
Nyac,Kuskokwim,,,,,,,0
Old Harbor,Kodiak,Old Harbor city,Kodiak,Koniag,Kodiak Island,57.2185806,-153.3279328,0
Oscarville,Kuskokwim,Oscarville CDP,Kuskokwim,Calista,Bethel,60.7234283,-161.7875078,0
Ouzinkie,Kodiak,Ouzinkie city,Kodiak,Koniag,Kodiak Island,57.9245936,-152.4637671,0
Ouzinkie,Kodiak,,,,,,,0
Palmer,Cook Inlet,Palmer city,Cook Inlet,Cook Inlet,Matanuska-Susitna,61.5971751,-149.1146903,1
Pavlof Harbor,Southeast,,,,,,,0
Paxson,Copper River,Paxson CDP,Copper River,Ahtna,Valdez-Cordova,62.9757243,-145.7589014,0
Pedro Bay,Bristol Bay,Pedro Bay CDP,Bristol Bay,Bristol Bay,Lake and Peninsula,59.7821613,-154.1079305,0
Pelican,Southeast,Pelican city,Southeast,Sealaska,Hoonah-Angoon,57.9592291,-136.2150664,0
Peninsula Point,Southeast,,,,,,,0
Pennock Island,Southeast,,,,,,,1
Perkinsville,Norton Sound,,,,,,,0
Perryville,Chignik,Perryville CDP,Chignik,Bristol Bay,Lake and Peninsula,55.9306027,-159.1467858,0
Peters Creek,Cook Inlet,,,,,,,1
Petersburg,Southeast,Petersburg CDP,Southeast,Sealaska,Petersburg,56.7542829,-132.8738085,1
Petersville,Cook Inlet,Petersville CDP,Cook Inlet,Cook Inlet,Matanuska-Susitna,62.4529127,-150.883063,0
Pilot Point,Bristol Bay,Pilot Point city,Bristol Bay,Bristol Bay,Lake and Peninsula,57.5411365,-157.7228073,0
Pilot Station,Yukon,Pilot Station city,Yukon,Calista,Kusilvak,61.946443,-162.8783057,0
Pitkas Point,Yukon,Pitkas Point CDP,Yukon,Calista,Kusilvak,62.0373999,-163.2681366,0
Platinum,Kuskokwim,Platinum city,Kuskokwim,Calista,Bethel,58.9513459,-161.7474536,0
Pleasant Harbor,Kodiak,,,,,,,0
Pleasant Valley,Yukon,Pleasant Valley CDP,Yukon,Doyon,Fairbanks North Star,64.8854337,-146.8986093,0
Point Baker,Southeast,Point Baker CDP,Southeast,Sealaska,Prince of Wales-Hyder,56.3481317,-133.6167942,0
Point Hope,Kotzebue,Point Hope city,Kotzebue,Arctic Slope,North Slope,68.3441516,-166.6748517,0
Point Lay,Arctic,Point Lay CDP,Arctic,Arctic Slope,North Slope,69.7481867,-163.0130248,0
Point MacKenzie,Cook Inlet,Point MacKenzie CDP,Cook Inlet,Cook Inlet,Matanuska-Susitna,61.3555968,-150.1693496,0
Point Possession,Cook Inlet,Point Possession CDP,Cook Inlet,Cook Inlet,Kenai Peninsula,60.9230807,-150.6888443,0
Point Whitshed,Prince William Sound,,,,,,,0
Polk Inlet,Southeast,,,,,,,0
Pope-Vannoy Landing,Bristol Bay,Pope-Vannoy Landing CDP,Bristol Bay,Bristol Bay,Lake and Peninsula,59.5706021,-154.4472363,0
Port Alexander,Southeast,Port Alexander city,Southeast,Sealaska,Prince of Wales-Hyder,56.2375127,-134.6528054,0
Port Alice,Southeast,,,,,,,0
Port Alsworth,Bristol Bay,Port Alsworth CDP,Bristol Bay,Cook Inlet,Lake and Peninsula,60.1578492,-154.3406085,0
Port Ashton,Prince William Sound,,,,,,,0
Port Bailey,Kodiak,,,,,,,0
Port Chilkoot,Southeast,,,,,,,0
Port Clarence,Norton Sound,Port Clarence CDP,Norton Sound,Bering Straits,Nome,65.1091167,-166.7644574,0
Port Graham,Cook Inlet,Port Graham CDP,Cook Inlet,Chugach,Kenai Peninsula,59.3397901,-151.8465013,0
Port Heiden,Alaska Peninsula and Aleutian Islands,Port Heiden city,Aleutian Islands,Bristol Bay,Lake and Peninsula,56.9643385,-158.5852848,0
Port Higgins,Southeast,,,,,,,0
Port Lions,Kodiak,Port Lions city,Kodiak,Koniag,Kodiak Island,57.8669944,-152.8563039,0
Port Moller,Alaska Peninsula and Aleutian Islands,,,,,,,0
Port Protection,Southeast,Port Protection CDP,Southeast,Sealaska,Prince of Wales-Hyder,56.3318805,-133.6064199,0
Port Williams,Kodiak,,,,,,,0
Portage,Cook Inlet,,,,,,,1
Portage Creek,Bristol Bay,Portage Creek CDP,Bristol Bay,Bristol Bay,Dillingham,58.9049084,-157.6690522,0
Portlock,Cook Inlet,,,,,,,0
Potter,Cook Inlet,,,,,,,1
Primrose,Cook Inlet,Primrose CDP,Cook Inlet, ,Kenai Peninsula,60.3416244,-149.2964485,0
Prudhoe Bay,Arctic,Prudhoe Bay CDP,Arctic,Arctic Slope,North Slope,70.3662097,-148.7455286,0
Quinhagak,Kuskokwim,Quinhagak city,Kuskokwim,Calista,Bethel,59.7508377,-161.8987146,0
Rainbow,Cook Inlet,,,,,,,1
Rampart,Yukon,Rampart CDP,Yukon,Doyon,Yukon-Koyukuk,65.4049512,-149.9209178,0
Red Devil,Kuskokwim,Red Devil CDP,Kuskokwim,Calista,Bethel,61.7575614,-157.3584514,0
Red Dog Mine,Kotzebue,Red Dog Mine CDP,Kotzebue,NANA,Northwest Arctic,68.0644112,-162.8668688,0
Red Mountain,Cook Inlet,,,,,,,0
Refuge Cove,Southeast,,,,,,,0
Ridgeway,Cook Inlet,Ridgeway CDP,Cook Inlet,Cook Inlet,Kenai Peninsula,60.5359428,-151.0578867,0
Rowan Bay,Southeast,,,,,,,0
Ruby,Yukon,Ruby city,Yukon,Doyon,Yukon-Koyukuk,64.7232896,-155.5005397,0
Russian Mission,Yukon,Russian Mission city,Yukon,Calista,Kusilvak,61.7786622,-161.3634059,0
Saginaw Bay,Southeast,,,,,,,0
Saint Marys,Yukon,St. Mary's city,Yukon,Calista,Kusilvak,62.0647611,-163.2557163,0
Saint Michael,Norton Sound,St. Michael city,Norton Sound,Bering Straits,Nome,63.4639863,-162.1331637,0
Saint Paul Island,Alaska Peninsula and Aleutian Islands,St. Paul city,Aleutian Islands,Aleut,Aleutians West,57.1790411,-170.3250684,0
Salamatof,Cook Inlet,Salamatof CDP,Cook Inlet,Cook Inlet,Kenai Peninsula,60.605183,-151.3117822,0
Salcha,Yukon,Salcha CDP,Yukon,Doyon,Fairbanks North Star,64.534001,-146.8842264,0
Saltery Cove,Kodiak,,,,,,,0
Sand Point,Alaska Peninsula and Aleutian Islands,Sand Point city,Aleutian Islands,Aleut,Aleutians East,55.3133735,-160.4832129,0
Savoonga,Norton Sound,Savoonga city,Norton Sound,Bering Straits,Nome,63.6797056,-170.4833236,0
Saxman,Southeast,Saxman city,Southeast,Sealaska,Ketchikan Gateway,55.3235565,-131.5863332,1
Saxman East,Southeast,,,,,,,0
Scammon Bay,Yukon,Scammon Bay city,Yukon,Calista,Kusilvak,61.8419289,-165.5832794,0
Selawik,Kotzebue,Selawik city,Kotzebue,NANA,Northwest Arctic,66.5918378,-160.0022125,0
Seldovia,Cook Inlet,Seldovia city,Cook Inlet,Cook Inlet,Kenai Peninsula,59.4386993,-151.7119845,0
Seldovia Village,Cook Inlet,Seldovia Village CDP,Cook Inlet,Cook Inlet,Kenai Peninsula,59.4612699,-151.5887555,0
Seward,Cook Inlet,Seward city,Cook Inlet,Chugach,Kenai Peninsula,60.1247863,-149.3915808,0
Shageluk,Yukon,Shageluk city,Yukon,Doyon,Yukon-Koyukuk,62.6617877,-159.5521885,0
Shaktolik,Norton Sound,Shaktoolik city,Norton Sound,Bering Straits,Nome,64.359686,-161.2007237,0
Shaktoolik,Norton Sound,Shaktoolik city,Norton Sound,Bering Straits,Nome,64.359686,-161.2007237,0
Sheldon Point,Yukon,,,,,,,0
Sheldon Point (Nunam Iqua),Yukon,,,,,,,0
Shemya,Alaska Peninsula and Aleutian Islands,,,,,,,0
Shemya Station,Alaska Peninsula and Aleutian Islands,,,,,,,0
Shishmaref,Kotzebue,Shishmaref city,Kotzebue,Bering Straits,Nome,66.2387173,-166.1092917,0
Shoreline Drive,Southeast,,,,,,,0
Shungnak,Kotzebue,Shungnak city,Kotzebue,NANA,Northwest Arctic,66.880505,-157.149979,0
Silver Springs,Copper River,Silver Springs CDP,Copper River,Ahtna,Valdez-Cordova,62.0193113,-145.3583112,0
Sitka,Southeast,Sitka city and borough,Southeast,Sealaska,Sitka,57.1932044,-135.3673965,1
Skagway,Southeast,Skagway CDP,Southeast,Sealaska,Skagway,59.4643604,-135.2751506,0
Skwentna,Cook Inlet,Skwentna CDP,Cook Inlet,Cook Inlet,Matanuska-Susitna,61.8886894,-151.1999937,0
Slana,Copper River,Slana CDP,Copper River,Ahtna,Valdez-Cordova,62.6169002,-143.5197327,0
Sleetmute,Kuskokwim,Sleetmute CDP,Kuskokwim,Calista,Bethel,61.6538615,-157.1030202,0
Soldotna,Cook Inlet,Soldotna city,Cook Inlet,Cook Inlet,Kenai Peninsula,60.4853176,-151.0690145,1
South Bjerremark,Yukon,,,,,,,0
South Naknek,Bristol Bay,South Naknek CDP,Bristol Bay,Bristol Bay,Bristol Bay,58.6755335,-156.994126,0
South Van Horn,Yukon,South Van Horn CDP,Yukon,Doyon,Fairbanks North Star,64.8097339,-147.7877523,0
Sparrevohn Station,Yukon,,,,,,,0
Spenard,Cook Inlet,,,,,,,1
Squaw Harbor,Alaska Peninsula and Aleutian Islands,,,,,,,0
St. George,Alaska Peninsula and Aleutian Islands,St. George city,Aleutian Islands,Aleut,Aleutians West,56.5927943,-169.6243783,0
St. George Island,Alaska Peninsula and Aleutian Islands,,,,,,,0
Saint George Isl,Alaska Peninsula and Aleutian Islands,,,,,,,0
St. John Harbor,Southeast,,,,,,,0
St. Mary's,Yukon,St. Mary's city,Yukon,Calista,Kusilvak,62.0647611,-163.2557163,0
St. Michael,Norton Sound,St. Michael city,Norton Sound,Bering Straits,Nome,63.4639863,-162.1331637,0
St. Paul,Alaska Peninsula and Aleutian Islands,St. Paul city,Aleutian Islands,Aleut,Aleutians West,57.1790411,-170.3250684,0
Stebbins,Norton Sound,Stebbins city,Norton Sound,Bering Straits,Nome,63.4733985,-162.2635281,0
Steele Creek,Yukon,Steele Creek CDP,Yukon,Doyon,Fairbanks North Star,64.9266118,-147.4350903,0
Sterling,Cook Inlet,Sterling CDP,Cook Inlet,Cook Inlet,Kenai Peninsula,60.5405334,-150.8058488,0
Stevens,Yukon,,,,,66.023707,-149.0803135,0
Stevens Village,Yukon,Stevens Village CDP,Yukon,Doyon,Yukon-Koyukuk,,,0
Stony River,Kuskokwim,Stony River CDP,Kuskokwim,Calista,Bethel,61.7896938,-156.5886824,0
Summit,Yukon,,,,,,,0
Sunrise,Cook Inlet,Sunrise CDP,Cook Inlet,Cook Inlet,Kenai Peninsula,60.8700678,-149.4677982,0
Suntrana,Yukon,,,,,,,0
Susitna,Cook Inlet,Susitna CDP,Cook Inlet,Cook Inlet,Matanuska-Susitna,61.5492797,-150.7264784,0
Susitna North,Cook Inlet,Susitna North CDP,Cook Inlet,Cook Inlet,Matanuska-Susitna,62.1475331,-149.748667,0
Sutton,Cook Inlet,,,,,,,0
Sutton-Alpine,Cook Inlet,Sutton-Alpine CDP,Cook Inlet,Cook Inlet,Matanuska-Susitna,61.7418932,-148.8742043,0
Takotna,Kuskokwim,Takotna CDP,Kuskokwim,Doyon,Yukon-Koyukuk,62.9823415,-156.0840594,0
Taku Harbor,Southeast,,,,,,,0
Talkeetna,Cook Inlet,Talkeetna CDP,Cook Inlet,Cook Inlet,Matanuska-Susitna,62.2713769,-150.084564,0
Tanacross,Yukon,Tanacross CDP,Yukon,Doyon,Southeast Fairbanks,63.32806,-143.4870871,0
Tanaina,Cook Inlet,Tanaina CDP,Cook Inlet,Cook Inlet,Matanuska-Susitna,61.6572425,-149.4277468,1
Tanana,Yukon,Tanana city,Yukon,Doyon,Yukon-Koyukuk,65.18447,-152.0547103,0
Tanunak,Kuskokwim,,,,,,,0
Tatalina Station,Yukon,,,,,,,0
Tatitlek,Prince William Sound,Tatitlek CDP,Prince William Sound,Chugach,Valdez-Cordova,60.8938756,-146.6699217,0
Tazlina,Copper River,Tazlina CDP,Copper River,Ahtna,Valdez-Cordova,62.0583489,-145.4643747,0
Telida,Yukon,,,,,,,0
Teller,Norton Sound,Teller city,Norton Sound,Bering Straits,Nome,65.2525149,-166.3523922,0
Teller Mission,Norton Sound,,,,,,,0
Tenakee,Southeast,,,,,,,0
Tenakee Springs,Southeast,Tenakee Springs city,Southeast,Sealaska,Hoonah-Angoon,57.7900544,-135.1354459,0
Terror Bay,Kodiak,,,,,,,0
Tetlin,Yukon,Tetlin CDP,Yukon,Doyon,Southeast Fairbanks,63.180949,-142.5103817,0
Thane,Southeast,,,,,,,0
Thoms Place,Southeast,,,Sealaska,Prince of Wales-Hyder,,,0
Thorne Bay,Southeast,Thorne Bay city,Southeast,,,55.6670265,-132.5356533,0
Togiak,Bristol Bay,Togiak city,Bristol Bay,Bristol Bay,Dillingham,59.0440309,-160.425889,0
Tok,Yukon,Tok CDP,Yukon,Doyon,Southeast Fairbanks,63.3288523,-143.0375432,0
Tokeen,Southeast,,,,,,,0
Toksook Bay,Kuskokwim,Toksook Bay city,Kuskokwim,Calista,Bethel,60.528071,-165.1061883,0
Tolsona,Copper River,Tolsona CDP,Copper River,Ahtna,Valdez-Cordova,62.0686354,-146.1231161,0
Tonsina,Copper River,Tonsina CDP,Copper River,Ahtna,Valdez-Cordova,61.5308984,-145.1108357,0
Trapper Creek,Cook Inlet,Trapper Creek CDP,Cook Inlet,Cook Inlet,Matanuska-Susitna,62.4177403,-150.4051368,0
Tuluksak,Kuskokwim,Tuluksak CDP,Kuskokwim,Calista,Bethel,61.1042731,-160.9375722,0
Tuntatuliag,Kuskokwim,Tuntutuliak CDP,Kuskokwim,Calista,Bethel,60.385009,-162.6843371,0
Tuntutuliak,Kuskokwim,Tuntutuliak CDP,Kuskokwim,Calista,Bethel,60.385009,-162.6843371,0
Tununak,Kuskokwim,Tununak CDP,Kuskokwim,Calista,Bethel,60.6070867,-165.1282628,0
Twin Hills,Bristol Bay,Twin Hills CDP,Bristol Bay,Bristol Bay,Dillingham,59.0818584,-160.2806454,0
Twin Peaks,Cook Inlet,,,,,,,1
Two Rivers,Yukon,Two Rivers CDP,Yukon,Doyon,Fairbanks North Star,64.8908446,-147.0898835,0
Tyonek,Cook Inlet,Tyonek CDP,Cook Inlet,Cook Inlet,Kenai Peninsula,61.1031003,-151.3859393,0
Uganik Bay,Kodiak,,,,,,,0
Ugashik,Bristol Bay,Ugashik CDP,Bristol Bay,Bristol Bay,Lake and Peninsula,57.6474339,-156.9949082,0
Unalakleet,Norton Sound,Unalakleet city,Norton Sound,Bering Straits,Nome,63.8943539,-160.7969075,0
Unalaska,Alaska Peninsula and Aleutian Islands,Unalaska city,Aleutian Islands,Aleut,Aleutians West,53.9107988,-166.5274463,1
Unga,Alaska Peninsula and Aleutian Islands,,,,,,,0
Upper Kalskag,Kuskokwim,Upper Kalskag city,Kuskokwim,Calista,Bethel,61.5395155,-160.3483265,0
Usibelli,Yukon,,,,,,,0
Usibelli Mine,Yukon,,,,,,,0
Uzinki,Kodiak,,,,,,,0
Valdez,Prince William Sound,Valdez city,Prince William Sound,Chugach,Valdez-Cordova,61.0836208,-146.317179,0
Venetie,Yukon,Venetie CDP,Yukon,Doyon,Yukon-Koyukuk,67.0206066,-146.3751538,0
Wainwright,Arctic,Wainwright city,Arctic,Arctic Slope,North Slope,70.6582417,-159.9851945,0
Wales,Kotzebue,Wales city,Kotzebue,Bering Straits,Nome,65.6132325,-168.0683133,0
Ward Cove,Southeast,,,,,,,1
Warm Springs Bay,Southeast,,,,,,,0
Wasilla,Cook Inlet,Wasilla city,Cook Inlet,Cook Inlet,Matanuska-Susitna,61.5752398,-149.4568398,1
West Petersburg,Southeast,Whale Pass CDP,Southeast,,,,,0
West Point,Kodiak,,,,,,,0
Whale Pass,Southeast,,,Sealaska,Prince of Wales-Hyder,56.1266992,-133.1976855,0
White Mountain,Norton Sound,White Mountain city,Norton Sound,Bering Straits,Nome,64.6823553,-163.4127546,0
Whitestone,Southeast,Whitestone CDP,Yukon,Doyon,Southeast Fairbanks,64.1528376,-145.9063852,0
Whitestone Logging Camp,Southeast,Whitestone Logging Camp CDP,Southeast,Sealaska,Hoonah-Angoon,58.0653797,-135.4204774,0
Whittier,Prince William Sound,Whittier city,Prince William Sound,Chugach,Valdez-Cordova,60.7766828,-148.6646423,0
Willow,Cook Inlet,Willow CDP,Cook Inlet,Cook Inlet,Matanuska-Susitna,61.8870223,-149.6197061,0
Willow Creek,Copper River,Willow Creek CDP,Copper River,Ahtna,Valdez-Cordova,61.8646439,-145.199413,0
Wiseman,Yukon,Wiseman CDP,Yukon,Doyon,Yukon-Koyukuk,67.4814274,-150.1607236,0
Womens Bay,Kodiak,Womens Bay CDP,Kodiak,Koniag,Kodiak Island,57.6886693,-152.6770662,0
Wood Spur,Yukon,,,,,,,0
Woody Island,Kodiak,,,,,,,0
Wrangell,Southeast,Wrangell city and borough,Southeast,Sealaska,Wrangell,56.317416,-132.343978,0
Y,Cook Inlet,,,,,,,0
Yakataga,Southeast,,,,,,,0
Yakutat,Southeast,Yakutat CDP,Southeast,Sealaska,Yakutat,59.5635878,-139.6061905,0
Yes Bay,Southeast,,,,,,,0
Zachar Bay,Kodiak,,,,,,,0
Basher,Cook Inlet,,,,,,,0
Bay City,Cook Inlet,,,,,,,0
Donnelly,Yukon,,,,,,,0
Eielson,Yukon,,,,,,,1
Elmendorf,Cook Inlet,,,,,,,1
Emanguk,Yukon,,,,,,,0
Fritz Cove,Southeast,,,,,,,0
Glen Alps,Cook Inlet,,,,,,,1
Graehl,Yukon,,,,,,,0
Iguigig,Bristol Bay,,,,,,,0
Lemeta,Yukon,,,,,,,0
Lemon Creek,Southeast,,,,,,,1
Lena Cove,Southeast,,,,,,,1
Lower Mendenhall Valley,Southeast,,,,,,,1
Mc Grath,Kuskokwim,,,,,,,0
Mendenhall Flats,Southeast,,,,,,,1
Mumtrak,Kuskokwim,,,,,,,0
Napaiskak,Kuskokwim,,,,,,,0
North Douglas,Southeast,,,,,,,1
Salmon Creek,Southeast,,,,,,,1
Sand Lake,Cook Inlet,,,,,,,1
Scow Bay,Southeast,,,,,,,0
Shungnak Village,Kotzebue,,,,,,,0
St George,Alaska Peninsula and Aleutian Islands,,,,,,,0
St Marys,Yukon,,,,,,,0
St Michael,Norton Sound,,,,,,,0
St Paul,Alaska Peninsula and Aleutian Islands,,,,,,,0
St George Isl,Alaska Peninsula and Aleutian Islands,,,,,,,0
Upper Mendenhall Valley,Southeast,,,,,,,1
Wildwood Station,Cook Inlet,,,,,,,0
Aurora-Johnston,Yukon,,,,,,,0
Denali Natl Park,Yukon,,,,,,,0
Saint Paul Isl,Alaska Peninsula and Aleutian Islands,,,,,,,0
Bartlett Cove,Southeast,,,,,,,0
Sourdough,Copper River,,,,,,,0
Seal Bay,Kodiak,Kodiak city,Kodiak,Koniag,Kodiak Island,,,0
JBER,Cook Inlet,,,,,,,1
St Paul Isl,Alaska Peninsula and Aleutian Islands,,,,,,,0
Bettles Field,Yukon,,,,,,,0
Yentna,Cook Inlet,,,,,,,0
Cold Foot,Yukon,,,,,,,0
Lake Clark,Bristol Bay,,,,,,,0
Chena Hot Springs,Yukon,,,,,,,0
U.S.C.G. Kodiak,Kodiak,Kodiak city,Kodiak,Koniag,Kodiak Island,,,1
Chatanika,Yukon,,,,,,,0
Boundary,Yukon,,,,,,,0
Eureka,Copper River,Eureka Roadhouse CDP,Copper River,Ahtna,Matanuska-Susitna,61.9585075,-147.1551042,0
New Halen,Bristol Bay,Newhalen city,Bristol Bay,Bristol Bay,Lake and Peninsula,59.7364292,-154.9009546,0
Utqiagvik,Arctic,Barrow city,Arctic,Arctic Slope,North Slope,71.2516793,-156.8005236,1
